INTELSAT 17 (IS-17)     
1 37238U 10065B   25007.06437973  .00000012  00000+0  00000+0 0  9999
2 37238   0.0265  76.0736 0002846 240.8984 239.0630  1.00271850 51645
BEIDOU-2 IGSO-2         
1 37256U 10068A   25006.67429867 -.00000204  00000+0  00000+0 0  9995
2 37256  48.5035 278.3351 0039453 215.0041 323.2872  1.00287493 51519
EUTELSAT KA-SAT 9A      
1 37258U 10069A   25004.39170378  .00000076  00000+0  00000+0 0  9991
2 37258   0.0703 292.2164 0000433  38.5637 283.4496  1.00271502 51511
HISPASAT 30W-5          
1 37264U 10070A   25006.74217102 -.00000202  00000+0  00000+0 0  9990
2 37264   0.0489 104.0435 0002876 173.3049  66.3634  1.00269583 47904
KOREASAT 6              
1 37265U 10070B   25006.86740536 -.00000348  00000+0  00000+0 0  9997
2 37265   0.0217  64.6282 0002203 289.6114 180.7028  1.00269552 51496
BEIDOU-2 IGSO-3         
1 37384U 11013A   25006.40391772 -.00000173  00000+0  00000+0 0  9997
2 37384  61.6475  45.1549 0029994 184.2833 127.6698  1.00257462 50377
INTELSAT 28 (IS-28)     
1 37392U 11016A   25006.89354986  .00000094  00000+0  00000+0 0  9999
2 37392   0.4418  89.9367 0004364 191.8889 161.9192  1.00134709 48002
YAHSAT 1A               
1 37393U 11016B   25006.91715882  .00000115  00000+0  00000+0 0  9993
2 37393   0.0194  62.3804 0003136 243.0321 183.9872  1.00270021 37137
SBIRS GEO-1 (USA 230)   
1 37481U 11019A   25007.04700914  .00000008  00000+0  00000+0 0  9990
2 37481   3.4040  51.1382 0002417 234.6220 263.7220  1.00271781 50069
TELSTAR 14R             
1 37602U 11021A   25006.08521612 -.00000266  00000+0  00000+0 0  9994
2 37602   0.0229 288.6129 0002110  38.4807 106.4738  1.00270464 50540
GSAT-8                  
1 37605U 11022A   25006.91715882  .00000098  00000+0  00000+0 0  9996
2 37605   0.7668  88.6771 0008948 186.1187 217.1875  1.00272556 47941
ST-2                    
1 37606U 11022B   25006.84493656 -.00000198  00000+0  00000+0 0  9993
2 37606   0.0247  86.8586 0002019 220.5912 191.3953  1.00269767 50005
ZHONGXING-10            
1 37677U 11026A   25006.64765760 -.00000338  00000+0  00000+0 0  9997
2 37677   0.0372 254.5659 0002768 325.1053 230.4550  1.00268670 49723
SES-3                   
1 37748U 11035A   25006.61530550 -.00000088  00000+0  00000+0 0  9992
2 37748   0.0241  42.7795 0002725 243.7280 298.4347  1.00270795 49319
KAZSAT-2                
1 37749U 11035B   25006.76108333 -.00000183  00000+0  00000+0 0  9995
2 37749   0.0365 153.9236 0001513 186.2200 126.9204  1.00268917 48127
BEIDOU-2 IGSO-4         
1 37763U 11038A   25005.86939700  .00000050  00000+0  00000+0 0  9996
2 37763  54.5709 170.3833 0131796 228.4931 115.5635  1.00264678 49350
ASTRA 1N                
1 37775U 11041A   25005.32278360  .00000133  00000+0  00000+0 0  9994
2 37775   0.0757  44.9623 0002836 291.7457 263.8471  1.00269528 39233
BSAT-3C (JCSAT-110R)    
1 37776U 11041B   25007.11785568 -.00000337  00000+0  00000+0 0  9994
2 37776   0.0158  55.7370 0000485 306.8741 256.6950  1.00271668 49242
PAKSAT-1R               
1 37779U 11042A   25006.89632664  .00000167  00000+0  00000+0 0  9990
2 37779   0.0367 114.9374 0001553 237.8520 114.5808  1.00272971 49202
SES-2                   
1 37809U 11049A   25006.80229236 -.00000182  00000+0  00000+0 0  9997
2 37809   0.0465 286.9002 0002831  12.3606   9.1736  1.00269904 48686
ARABSAT-5C              
1 37810U 11049B   25006.90604983  .00000137  00000+0  00000+0 0  9995
2 37810   0.0474 356.0236 0004329 249.0232 207.8505  1.00272037 48765
EUTELSAT 7 WEST A       
1 37816U 11051A   25006.89007731 -.00000047  00000+0  00000+0 0  9991
2 37816   0.0637  21.2699 0005605 217.6632 180.8849  1.00270585 48610
QUETZSAT 1              
1 37826U 11054A   25007.01868611 -.00000228  00000+0  00000+0 0  9993
2 37826   0.0216  50.7989 0002987 245.1395 100.6207  1.00271134 48827
INTELSAT 18 (IS-18)     
1 37834U 11056A   25007.19536240  .00000067  00000+0  00000+0 0  9993
2 37834   0.0022 109.0814 0001516 173.8381  74.4278  1.00273348 48572
EUTELSAT 16A            
1 37836U 11057A   25006.89354986  .00000117  00000+0  00000+0 0  9993
2 37836   0.0683  19.3307 0005637 270.2512 154.7841  1.00273015  2055
VIASAT-1                
1 37843U 11059A   25006.62452205 -.00000009  00000+0  00000+0 0  9998
2 37843   0.0200  25.8573 0002289 260.5268 289.7688  1.00268330 42040
ASIASAT 7               
1 37933U 11069A   25006.88521637 -.00000320  00000+0  00000+0 0  9999
2 37933   0.0422 213.5988 0001576  41.6335 275.6509  1.00272378 39581
BEIDOU-2 IGSO-5         
1 37948U 11073A   25006.67096383 -.00000165  00000+0  00000+0 0  9999
2 37948  48.6392 278.0327 0101539 220.7782 304.5533  1.00285949 47856
LUCH-5A                 
1 37951U 11074B   25006.29164184 -.00000039  00000+0  00000+0 0  9997
2 37951   7.4063  81.7807 0004257 182.7330 113.4886  1.00273127 47768
NIGCOMSAT 1R            
1 38014U 11077A   25006.89632664  .00000158  00000+0  00000+0 0  9991
2 38014   0.0345 233.3154 0002074  81.0985 157.4559  1.00269566 47681
WGS F4 (USA 233)        
1 38070U 12003A   25006.33689899 -.00000201  00000+0  00000+0 0  9994
2 38070   0.0167  59.0527 0000599 219.5296  37.2349  1.00269697 38862
SES-4                   
1 38087U 12007A   25007.06993799 -.00000155  00000+0  00000+0 0  9992
2 38087   0.0234  37.9108 0002593 257.1881 174.9532  1.00269863 47216
BEIDOU-2 G5             
1 38091U 12008A   25006.88938369  .00000069  00000+0  00000+0 0  9992
2 38091   2.2618  71.1517 0013083 232.2482 182.1739  1.00270814 47096
MUOS-1                  
1 38093U 12009A   25006.57896444 -.00000116  00000+0  00000+0 0  9992
2 38093   4.4236  46.1699 0052072 355.9872 172.7128  1.00271673 47167
INTELSAT 22 (IS-22)     
1 38098U 12011A   25006.74424197 -.00000046  00000+0  00000+0 0  9993
2 38098   0.0277  60.9831 0001718 239.8367 145.7884  1.00274592  1916
APSTAR-7                
1 38107U 12013A   25006.87827175 -.00000088  00000+0  00000+0 0  9999
2 38107   0.0439  95.7506 0002520 203.7485 199.8586  1.00270382 46534
YAHSAT 1B               
1 38245U 12016A   25007.16091030  .00000140  00000+0  00000+0 0  9999
2 38245   0.0902  92.1708 0002954 210.7536 269.5720  1.00269274 46648
AEHF-2 (USA 235)        
1 38254U 12019A   25006.81636699 -.00000124  00000+0  00000+0 0  9992
2 38254   5.4300  60.8232 0002662 223.2771  99.9588  1.00271202  1708
JCSAT-13                
1 38331U 12023A   25006.87410758 -.00000343  00000+0  00000+0 0  9998
2 38331   0.0220  33.5991 0002130 246.4650 265.3036  1.00270243 46269
VINASAT-2               
1 38332U 12023B   25006.89632750 -.00000316  00000+0  00000+0 0  9999
2 38332   0.0118 359.5684 0002559 288.0023 273.6489  1.00269887 41381
NIMIQ 6                 
1 38342U 12026A   25006.01552796 -.00000159  00000+0  00000+0 0  9993
2 38342   0.0153  58.4699 0002762 225.2620  96.6096  1.00271054 45126
ZHONGXING-2A            
1 38352U 12028A   25006.88729764 -.00000279  00000+0  00000+0 0  9995
2 38352   0.0919  99.7016 0001844 203.1565 221.5088  1.00272348 46028
INTELSAT 19 (IS-19)     
1 38356U 12030A   25006.70950394 -.00000043  00000+0  00000+0 0  9997
2 38356   0.0205  25.2768 0003331 265.1558 237.5226  1.00269672 46231
ECHOSTAR 17             
1 38551U 12035A   25006.36956608 -.00000061  00000+0  00000+0 0  9995
2 38551   0.0191  43.2480 0002277 237.2128 211.6721  1.00272571 45788
METEOSAT-10 (MSG-3)     
1 38552U 12035B   25007.03397707  .00000005  00000+0  00000+0 0  9997
2 38552   3.4322  61.9262 0001527 236.3221 180.8755  1.00273237 45940
SES-5                   
1 38652U 12036A   25006.89910419  .00000047  00000+0  00000+0 0  9999
2 38652   0.0562 302.1120 0001879 338.3828 154.8709  1.00271093 39209
INTELSAT 20 (IS-20)     
1 38740U 12043A   25006.82827062 -.00000011  00000+0  00000+0 0  9991
2 38740   0.0168  75.5213 0002949 104.2539 293.5282  1.00272730 45473
HYLAS 2                 
1 38741U 12043B   25006.78005093 -.00000029  00000+0  00000+0 0  9998
2 38741   1.0656  87.7216 0001329 287.5279 172.9243  1.00570884 45492
INTELSAT 21 (IS-21)     
1 38749U 12045A   25006.55674372 -.00000271  00000+0  00000+0 0  9994
2 38749   0.0210  26.9916 0001853 260.3573 321.4635  1.00268867 45249
ASTRA 2F                
1 38778U 12051A   25006.90604983  .00000163  00000+0  00000+0 0  9992
2 38778   0.0586 242.8775 0003935  13.5788 204.6266  1.00270185 35863
GSAT-10                 
1 38779U 12051B   25005.71021642 -.00000151  00000+0  00000+0 0  9994
2 38779   0.0572 256.4178 0002071 209.4149 338.4295  1.00270048 44804
INTELSAT 23 (IS-23)     
1 38867U 12057A   25005.16552983 -.00000270  00000+0  00000+0 0  9996
2 38867   0.0490 215.9952 0000908 190.2599  65.3516  1.00270873 44655
BEIDOU-2 G6             
1 38953U 12059A   25006.86716001 -.00000164  00000+0  00000+0 0  9997
2 38953   3.0801  78.8556 0008499 287.9633 136.0317  1.00272219 44631
LUCH-5B                 
1 38977U 12061A   25006.45896615 -.00000129  00000+0  00000+0 0  9992
2 38977   9.3351  54.8967 0005433 190.3386   9.9314  1.00270991 44329
YAMAL 300K              
1 38978U 12061B   25006.78448184  .00000085  00000+0  00000+0 0  9993
2 38978   0.0115  56.8352 0000504 295.8615 219.2553  1.00272173 44354
STAR ONE C3             
1 38991U 12062A   25006.48104906 -.00000235  00000+0  00000+0 0  9995
2 38991   0.0225  31.9714 0002187 258.9088 273.5847  1.00266492 44570
EUTELSAT 21B            
1 38992U 12062B   25006.82375184  .00000144  00000+0  00000+0 0  9990
2 38992   0.0681  18.9385 0002886 266.6294 139.2056  1.00273199 44546
ECHOSTAR 16             
1 39008U 12065A   25006.76860660 -.00000268  00000+0  00000+0 0  9991
2 39008   0.0158  30.4106 0002088 251.8815  39.4894  1.00270708 44345
ZHONGXING-12            
1 39017U 12067A   25006.87236740 -.00000193  00000+0  00000+0 0  9998
2 39017   0.0446  96.7812 0003323 185.0292 226.4102  1.00269362 44236
